[{"OBJECT_NAME":"STARLINK-3563","OBJECT_ID":"2022-022G","EPOCH":"2026-03-09T07:23:35.601216","MEAN_MOTION":15.08837142,"ECCENTRICITY":0.00014638,"INCLINATION":53.2194,"RA_OF_ASC_NODE":20.8334,"ARG_OF_PERICENTER":84.9792,"MEAN_ANOMALY":275.1367,"EPHEMERIS_TYPE":0,"CLASSIFICATION_TYPE":"U","NORAD_CAT_ID":51858,"ELEMENT_SET_NO":999,"REV_AT_EPOCH":22296,"BSTAR":3.4786033e-5,"MEAN_MOTION_DOT":2.66e-6,"MEAN_MOTION_DDOT":0},{"OBJECT_NAME":"AISAT","OBJECT_ID":"2014-034B","EPOCH":"2026-03-09T16:29:04.722144","MEAN_MOTION":15.06703825,"ECCENTRICITY":0.00089151,"INCLINATION":98.2441,"RA_OF_ASC_NODE":333.9816,"ARG_OF_PERICENTER":189.0234,"MEAN_ANOMALY":171.0832,"EPHEMERIS_TYPE":0,"CLASSIFICATION_TYPE":"U","NORAD_CAT_ID":40054,"ELEMENT_SET_NO":999,"REV_AT_EPOCH":63221,"BSTAR":0.00094770343,"MEAN_MOTION_DOT":0.00014038,"MEAN_MOTION_DDOT":0}]
